CBERS 4A                
1 44883U 19093E   26182.94942545  .00001096  00000+0  14687-3 0  9994
2 44883  98.0191 250.4018 0000696 130.7146 229.4127 14.81424065353261
WEILAI 1R               
1 44884U 19093F   26182.92352866  .00004014  00000+0  32033-3 0  9992
2 44884  97.7879 272.8338 0017062 351.8975   8.1971 15.00766298354635
FLORIPASAT-1            
1 44885U 19093G   26182.92928416  .00005676  00000+0  41429-3 0  9997
2 44885  97.7947 277.2683 0011968  27.4120 332.7735 15.04032749354861
SHUNTIAN                
1 44886U 19093H   26182.93101472  .00002815  00000+0  26093-3 0  9996
2 44886  97.8018 271.0167 0012177  24.4162 335.7633 14.95227489354380
ELEKTRO-L 3             
1 44903U 19095A   26182.97663995 -.00000086  00000+0  00000+0 0  9990
2 44903   0.2940  81.9500 0001624   5.9608 259.6869  1.00271786 23856
GONETS-M 14             
1 44905U 19096A   26182.94036751 -.00000023  00000+0 -23986-3 0  9998
2 44905  82.5236  75.4951 0014115 117.1752 243.0768 12.42869983295511
GONETS-M 15             
1 44906U 19096B   26182.96975583 -.00000004  00000+0 -10103-3 0  9992
2 44906  82.5256  75.9407 0015569 139.4829 220.7413 12.42871538295485
GONETS-M 16             
1 44907U 19096C   26182.99572376  .00000015  00000+0  36015-4 0  9990
2 44907  82.5201  74.8699 0010391 180.1438 179.9640 12.42891853295472
RS-44 & BREEZE-KM R/B   
1 44909U 19096E   26182.78140958  .00000006  00000+0 -28734-4 0  9996
2 44909  82.5232 330.0063 0218554 110.1949 252.2802 12.79748929304214
JILIN-1 KUANFU 01       
1 45016U 20003A   26182.92317837  .00003231  00000+0  19822-3 0  9993
2 45016  97.5027 256.5913 0008168 247.1157 112.9211 15.10805068357555
XINGYUN-2 01            
1 45602U 20028A   26182.96785606  .00003398  00000+0  20217-3 0  9992
2 45602  97.4870 175.0757 0010106 143.2275 216.9651 15.11870449337078
XINGYUN-2 02            
1 45603U 20028B   26182.94910767  .00003781  00000+0  22624-3 0  9999
2 45603  97.5067 188.6812 0009830 213.2602 146.8012 15.11597989337060
HAIYANG-1D              
1 45721U 20036A   26182.90315808 -.00000078  00000+0 -12627-4 0  9991
2 45721  98.4561 124.2636 0003960  97.1801 262.9835 14.34177235317083
M2 PATHFINDER           
1 45727U 20037E   26182.94284264  .00003300  00000+0  23833-3 0  9992
2 45727  97.8146  14.3397 0012826 102.7020 257.5641 15.04743095327718
GAOFEN DUOMO (GFDM)     
1 45856U 20042A   26182.97717207  .00000226  00000+0  39044-4 0  9998
2 45856  97.7741 242.3250 0011748  32.0709 328.1214 14.76897730323196
ZIYUAN 3-03 (ZY 3-03)   
1 45939U 20051A   26182.98355066  .00004696  00000+0  21249-3 0  9994
2 45939  97.2834 250.2294 0002107 259.1226 100.9773 15.21371892329590
NEMO-HD                 
1 46277U 20061F   26182.96405337  .00013898  00000+0  29751-3 0  9996
2 46277  97.1910 244.7699 0001515  73.7900 286.3516 15.44895855324266
NAPA-1                  
1 46320U 20061BA  26182.95953561  .00086491  00000+0  71381-3 0  9996
2 46320  97.2453 257.6438 0001866 185.3141 174.8102 15.70063152324053
JILIN-1 GAOFEN 3E       
1 46457U 20065D   26182.93287404  .00080531  00000+0  79649-3 0  9999
2 46457  97.2224 235.8996 0012106 112.7765 247.4776 15.65521053322068
JILIN-1 GAOFEN 3F       
1 46458U 20065E   26182.92070933  .00067666  00000+0  75390-3 0  9999
2 46458  97.2179 233.1497 0013587 100.8558 259.4231 15.62507695322003
JILIN-1 GAOFEN 3G       
1 46459U 20065F   26182.91066820  .00119399  00000+0  82685-3 0  9995
2 46459  97.2244 240.2014 0005065 354.4672   5.6536 15.74123029322251
JILIN-1 GAOFEN 3H       
1 46460U 20065G   26182.91724969  .00097205  00000+0  80082-3 0  9992
2 46460  97.2187 236.4412 0004292 255.1999 104.8789 15.70062763322196
HAIYANG-2C              
1 46469U 20066A   26182.98618850  .00000292  00000+0  33936-3 0  9996
2 46469  65.9945 178.4374 0008280 237.6983 122.3284 13.83378252291544
HJ-2A                   
1 46478U 20067A   26182.93857469  .00000531  00000+0  83299-4 0  9997
2 46478  97.8831 260.9620 0003007 197.6929 162.4176 14.76533966310433
HJ-2B                   
1 46479U 20067B   26182.97503537  .00000411  00000+0  66050-4 0  9999
2 46479  97.8897 262.0315 0001587  99.5474 260.5915 14.76575076310446
GONETS-M 17             
1 46486U 20068A   26182.94051799  .00000021  00000+0  76888-4 0  9990
2 46486  82.4994 338.3225 0022418   5.9511 354.1831 12.42873677260998
GONETS-M 18             
1 46487U 20068B   26182.90417009 -.00000020  00000+0 -21435-3 0  9995
2 46487  82.4949 337.4576 0019647   2.7687 357.3498 12.42874166260973
