OBJECT_NAME,OBJECT_ID,EPOCH,MEAN_MOTION,ECCENTRICITY,INCLINATION,RA_OF_ASC_NODE,ARG_OF_PERICENTER,MEAN_ANOMALY,EPHEMERIS_TYPE,CLASSIFICATION_TYPE,NORAD_CAT_ID,ELEMENT_SET_NO,REV_AT_EPOCH,BSTAR,MEAN_MOTION_DOT,MEAN_MOTION_DDOT
CBERS 4A,2019-093E,2026-07-01T22:47:10.358880,14.81424065,.00006963,98.0191,250.4018,130.7146,229.4127,0,U,44883,999,35326,.14687082E-3,.1096E-4,0
WEILAI 1R,2019-093F,2026-07-01T22:09:52.876224,15.00766298,.00170623,97.7879,272.8338,351.8975,8.1971,0,U,44884,999,35463,.32033022E-3,.4014E-4,0
FLORIPASAT-1,2019-093G,2026-07-01T22:18:10.151424,15.04032749,.0011968,97.7947,277.2683,27.4120,332.7735,0,U,44885,999,35486,.41429178E-3,.5676E-4,0
SHUNTIAN,2019-093H,2026-07-01T22:20:39.671808,14.95227489,.00121776,97.8018,271.0167,24.4162,335.7633,0,U,44886,999,35438,.26093324E-3,.2815E-4,0
ELEKTRO-L 3,2019-095A,2026-07-01T23:26:21.691680,1.00271786,.00016247,0.2940,81.9500,5.9608,259.6869,0,U,44903,999,2385,0,-.86E-6,0
GONETS-M 14,2019-096A,2026-07-01T22:34:07.752864,12.42869983,.00141157,82.5236,75.4951,117.1752,243.0768,0,U,44905,999,29551,-.23985738E-3,-.23E-6,0
GONETS-M 15,2019-096B,2026-07-01T23:16:26.903712,12.42871538,.00155696,82.5256,75.9407,139.4829,220.7413,0,U,44906,999,29548,-.10102593E-3,-.4E-7,0
GONETS-M 16,2019-096C,2026-07-01T23:53:50.532864,12.42891853,.00103915,82.5201,74.8699,180.1438,179.9640,0,U,44907,999,29547,.36014676E-4,.15E-6,0
RS-44 & BREEZE-KM R/B,2019-096E,2026-07-01T18:45:13.787712,12.79748929,.02185541,82.5232,330.0063,110.1949,252.2802,0,U,44909,999,30421,-.2873383E-4,.6E-7,0
JILIN-1 KUANFU 01,2020-003A,2026-07-01T22:09:22.611168,15.10805068,.00081688,97.5027,256.5913,247.1157,112.9211,0,U,45016,999,35755,.19822445E-3,.3231E-4,0
XINGYUN-2 01,2020-028A,2026-07-01T23:13:42.763584,15.11870449,.00101064,97.4870,175.0757,143.2275,216.9651,0,U,45602,999,33707,.20216997E-3,.3398E-4,0
XINGYUN-2 02,2020-028B,2026-07-01T22:46:42.902688,15.11597989,.00098305,97.5067,188.6812,213.2602,146.8012,0,U,45603,999,33706,.22624407E-3,.3781E-4,0
HAIYANG-1D,2020-036A,2026-07-01T21:40:32.858112,14.34177235,.00039608,98.4561,124.2636,97.1801,262.9835,0,U,45721,999,31708,-.12627381E-4,-.78E-6,0
M2 PATHFINDER,2020-037E,2026-07-01T22:37:41.604096,15.04743095,.00128263,97.8146,14.3397,102.7020,257.5641,0,U,45727,999,32771,.23832871E-3,.33E-4,0
GAOFEN DUOMO (GFDM),2020-042A,2026-07-01T23:27:07.666848,14.76897730,.0011748,97.7741,242.3250,32.0709,328.1214,0,U,45856,999,32319,.39044345E-4,.226E-5,0
ZIYUAN 3-03 (ZY 3-03),2020-051A,2026-07-01T23:36:18.777024,15.21371892,.00021072,97.2834,250.2294,259.1226,100.9773,0,U,45939,999,32959,.21248643E-3,.4696E-4,0
NEMO-HD,2020-061F,2026-07-01T23:08:14.211168,15.44895855,.00015159,97.1910,244.7699,73.7900,286.3516,0,U,46277,999,32426,.29751473E-3,.13898E-3,0
NAPA-1,2020-061BA,2026-07-01T23:01:43.876704,15.70063152,.00018667,97.2453,257.6438,185.3141,174.8102,0,U,46320,999,32405,.7138098E-3,.86491E-3,0
JILIN-1 GAOFEN 3E,2020-065D,2026-07-01T22:23:20.317056,15.65521053,.00121064,97.2224,235.8996,112.7765,247.4776,0,U,46457,999,32206,.79649118E-3,.80531E-3,0
JILIN-1 GAOFEN 3F,2020-065E,2026-07-01T22:05:49.286112,15.62507695,.00135877,97.2179,233.1497,100.8558,259.4231,0,U,46458,999,32200,.75390096E-3,.67666E-3,0
JILIN-1 GAOFEN 3G,2020-065F,2026-07-01T21:51:21.732480,15.74123029,.00050655,97.2244,240.2014,354.4672,5.6536,0,U,46459,999,32225,.82685082E-3,.119399E-2,0
JILIN-1 GAOFEN 3H,2020-065G,2026-07-01T22:00:50.373216,15.70062763,.00042927,97.2187,236.4412,255.1999,104.8789,0,U,46460,999,32219,.8008196E-3,.97205E-3,0
HAIYANG-2C,2020-066A,2026-07-01T23:40:06.686400,13.83378252,.000828,65.9945,178.4374,237.6983,122.3284,0,U,46469,999,29154,.33935848E-3,.292E-5,0
HJ-2A,2020-067A,2026-07-01T22:31:32.853216,14.76533966,.00030073,97.8831,260.9620,197.6929,162.4176,0,U,46478,999,31043,.83298613E-4,.531E-5,0
HJ-2B,2020-067B,2026-07-01T23:24:03.055968,14.76575076,.0001587,97.8897,262.0315,99.5474,260.5915,0,U,46479,999,31044,.66050307E-4,.411E-5,0
GONETS-M 17,2020-068A,2026-07-01T22:34:20.754336,12.42873677,.00224189,82.4994,338.3225,5.9511,354.1831,0,U,46486,999,26099,.76888098E-4,.21E-6,0
GONETS-M 18,2020-068B,2026-07-01T21:42:00.295776,12.42874166,.00196471,82.4949,337.4576,2.7687,357.3498,0,U,46487,999,26097,-.21435189E-3,-.2E-6,0
